0 VANGUARD 1
1     5U 58002B   20280.20854121 +.00000020 +00000-0 +37228-4 0  9993
2     5 034.2434 247.0802 1845665 130.7558 246.8519 10.84868963217282
0 VANGUARD 2
1    11U 59001A   20280.51454232  .00000046  00000-0  16025-4 0  9993
2    11  32.8700 358.4041 1466760 158.4407 208.5019 11.85679942629901
0 VANGUARD R/B
1    12U 59001B   20280.23480079 +.00000367 +00000-0 +20085-3 0  9997
2    12 032.9118 323.3975 1666415 298.3595 045.8898 11.44327714292673
0 VANGUARD R/B
1    16U 58002A   20280.10200101  .00000030  00000-0  46443-4 0  9997
2    16  34.2627 195.1568 2021717 344.2253  10.3352 10.48675460470445
0 VANGUARD 3
1    20U 59007A   20280.07832366 +.00000301 +00000-0 +12383-3 0  9994
2    20 033.3407 147.9694 1666681 133.5640 241.6000 11.55740434243400
0 EXPLORER 7
1    22U 59009A   20280.24569323 +.00000345 +00000-0 +48556-4 0  9997
2    22 050.2846 302.1986 0139469 322.0018 037.1153 14.95218835486945
0 TIROS 1
1    29U 60002B   20280.06874587 -.00000116 +00000-0 +13758-4 0  9993
2    29 048.3788 146.5839 0024226 344.8375 015.1809 14.74374926234861
0 TRANSIT 2A
1    45U 60007A   20279.87605104 -.00000072  00000-0  92600-5 0  9995
2    45  66.6932  89.8931 0261697 236.1275 121.4680 14.33688644138537
0 SOLRAD 1 (GREB)
1    46U 60007B   20280.01580861 -.00000020 +00000-0 +19217-4 0  9991
2    46 066.6890 107.7937 0204488 047.4260 314.3900 14.49320226155138
0 THOR ABLESTAR R/B
1    47U 60007C   20280.24962874 -.00000052 +00000-0 +13621-4 0  9993
2    47 066.6655 218.7259 0233140 223.5372 134.7125 14.42104356150658
0 DELTA 1 R/B
1    50U 60009B   20280.04095500 -.00000113  00000-0 -27093-3 0  9996
2    50  47.2299 138.0447 0113563 295.4106  63.4965 12.20112668684171
0 ECHO 1 DEB (METAL OBJ)
1    51U 60009C   20280.21094206 -.00000127 +00000-0 -39914-3 0  9998
2    51 047.2155 004.7616 0106977 133.4761 227.4982 12.18275230677590
0 ECHO 1 DEB (METAL OBJ)
1    53U 60009E   20280.25637466 -.00000129 +00000-0 -42833-3 0  9991
2    53 047.2754 277.2947 0097407 047.6979 313.2016 12.17244868682067
0 COURIER 1B
1    58U 60013A   20280.20464389 +.00000096 +00000-0 +12518-4 0  9997
2    58 028.3276 252.7621 0164933 266.1578 092.0095 13.46323398953553
0 THOR ABLESTAR R/B
1    59U 60013B   20279.92454979 +.00000090 +00000-0 +23651-5 0  9994
2    59 028.2498 010.7369 0189135 133.3459 228.3014 13.52978425961563
0 SCOUT X-1 R/B
1    82U 61004B   20280.28480669 -.00000077  00000-0 -37156-4 0  9998
2    82  38.8627 147.9918 1175719 258.5396  88.1222 12.26058307821417
0 SCOUT X-1 DEB
1    85U 61004C   20280.07288869 +.00000779 +00000-0 +18058-3 0  9992
2    85 038.7704 176.5296 0393807 158.2708 203.5262 14.21093284946835
0 EXPLORER 11
1   107U 61013A   20280.39554680  .00000530  00000-0  53503-4 0  9999
2   107  28.7871 274.8657 0546584  33.8133 329.6091 14.09024361981430
0 THOR ABLE DEB (YO)
1   115U 60002D   20279.90851622 -.00000044  00000-0  21929-4 0  9994
2   115  48.1658 103.0819 0034463  14.9246 345.2676 14.83624330229379
0 TRANSIT 4A
1   116U 61015A   20280.21038915 -.00000070 +00000-0 +56618-5 0  9991
2   116 066.8071 297.4575 0082092 289.3152 069.9064 13.91775720007247
0 SOLRAD 3/INJUN 1
1   117U 61015B   20280.49932589 -.00000051  00000-0  20474-4 0  9991
2   117  66.8144  33.4806 0082901 308.9200  50.4507 13.89856203  5467
0 THOR ABLESTAR R/B
1   118U 61015C   20280.24664976  .00000007  00000-0  54786-4 0  9990
2   118  66.7643 203.4050 0089140 293.7868  65.3888 14.01689018 25073
0 THOR ABLESTAR DEB
1   119U 61015D   20280.25865928 +.00000348 +00000-0 +17906-3 0  9992
2   119 066.7310 017.5321 0108695 320.6877 038.6361 14.23326169062010
0 THOR ABLESTAR DEB
1   120U 61015E   20279.91709579 +.00000042 +00000-0 +50305-4 0  9996
2   120 066.7054 086.0804 0110686 064.9988 296.2554 14.25421088051515
0 THOR ABLESTAR DEB
1   121U 61015F   20280.45144107 -.00000037  00000-0  27750-4 0  9991
2   121  66.7476 168.6348 0091573  13.0369 347.3049 13.99695419 35256
0 THOR ABLESTAR DEB
1   122U 61015G   20280.21505681 +.00000334 +00000-0 +73376-4 0  9998
2   122 066.7499 298.7167 0065312 047.4755 313.1853 14.69278859086677
0 THOR ABLESTAR DEB
1   123U 61015H   20280.17277517  .00000063  00000-0  48504-4 0  9992
2   123  66.6854 191.2586 0116681 346.7351  13.0688 14.37089847 80844
0 THOR ABLESTAR DEB
1   124U 61015J   20280.22967558 +.00000218 +00000-0 +11375-3 0  9997
2   124 066.5452 342.0982 0072366 139.5318 221.1193 14.30526624060995
0 THOR ABLESTAR DEB
1   125U 61015K   20280.09832131 -.00000079  00000-0  28385-6 0  9999
2   125  66.8754  85.4960 0072667 150.4503 210.0722 14.05531459 25259
0 THOR ABLESTAR DEB
1   126U 61015L   20280.22991535 +.00000234 +00000-0 +10693-3 0  9991
2   126 066.7124 215.7433 0068905 342.4889 017.3836 14.36288940065259
0 THOR ABLESTAR DEB
1   127U 61015M   20280.10818673 +.00000201 +00000-0 +90961-4 0  9991
2   127 066.8308 067.6252 0072830 165.6143 194.7058 14.38817375066875
0 THOR ABLESTAR DEB
1   128U 61015N   20280.22806788 -.00000018 +00000-0 +39268-4 0  9999
2   128 066.6764 336.8645 0100321 301.9936 057.1427 14.01199106023600
0 THOR ABLESTAR DEB
1   130U 61015Q   20280.24697450 -.00000019 +00000-0 +40237-4 0  9997
2   130 066.7735 006.4910 0091335 306.4176 052.8509 13.98719098020510
0 THOR ABLESTAR DEB
1   131U 61015R   20280.20268721 -.00000014 +00000-0 +42793-4 0  9993
2   131 066.7342 244.1934 0074146 078.4624 282.4772 14.00697590012078
0 THOR ABLESTAR DEB
1   132U 61015S   20280.13409896 -.00000062  00000-0  12439-4 0  9993
2   132  66.6600  71.2340 0072206 157.9998 202.4208 13.94325387 14147
0 THOR ABLESTAR DEB
1   133U 61015T   20279.99535819 +.00000309 +00000-0 +18636-3 0  9998
2   133 067.1152 082.4376 0053776 350.3962 009.6100 14.18238211038612
0 THOR ABLESTAR DEB
1   134U 61015U   20279.96944984 -.00000048 +00000-0 +20751-4 0  9996
2   134 066.8788 123.8219 0088604 252.8193 106.3175 13.96840293015098
0 THOR ABLESTAR DEB
1   136U 61015W   20280.19292832 +.00000090 +00000-0 +60257-4 0  9994
2   136 067.5304 195.7000 0052523 129.9437 230.6302 14.33625127057979
0 THOR ABLESTAR DEB
1   138U 61015Y   20280.13653590 +.00000213 +00000-0 +18918-3 0  9995
2   138 067.1547 168.7113 0035772 300.6486 059.1077 14.01738785011502
0 THOR ABLESTAR DEB
1   141U 61015AB  20280.50250784  .00000021  00000-0  83216-4 0  9999
2   141  66.5878  98.9849 0058762 319.1663  40.5016 13.86893621983612
0 THOR ABLESTAR DEB
1   144U 61015AE  20279.97211212 +.00000025 +00000-0 +83195-4 0  9994
2   144 066.4987 128.1688 0049470 250.0871 109.4871 13.90105250995405
0 THOR ABLESTAR DEB
1   145U 61015AF  20279.96826713  .00000119  00000-0  12848-3 0  9992
2   145  66.9253 131.9369 0060457  23.3286 337.0521 14.01361917 25563
0 THOR ABLESTAR DEB
1   147U 61015AH  20280.20722105  .00000381  00000-0  21929-3 0  9994
2   147  66.6203 340.0886 0047960  87.1746 273.4834 14.19127882 39416
0 THOR ABLESTAR DEB
1   148U 61015AJ  20280.02466837 -.00000317  00000-0 -12487-3 0  9992
2   148  65.7732 157.2034 0159770 297.6213  60.8720 14.05744335466685
0 THOR ABLESTAR DEB
1   150U 61015AL  20280.24525158 +.00000088 +00000-0 +15471-3 0  9990
2   150 066.2499 341.4889 0058490 014.8420 345.4349 13.81261247821026
0 THOR ABLESTAR DEB
1   152U 61015AN  20280.23382725 -.00000041 +00000-0 +21292-4 0  9991
2   152 066.5933 209.8100 0155265 171.8520 188.5134 14.09253742032811
0 THOR ABLESTAR DEB
1   154U 61015AQ  20280.20798812  .00000080  00000-0  97292-4 0  9993
2   154  66.6603 345.4955 0083658 357.1430   2.9165 14.04494414 24810
0 THOR ABLESTAR DEB
1   155U 61015AR  20280.21166941 +.00000263 +00000-0 +11112-3 0  9996
2   155 066.8820 030.2695 0039977 072.8395 287.7080 14.39342918060829
0 THOR ABLESTAR DEB
1   158U 61015AU  20280.18881984 -.00000042  00000-0  25326-4 0  9995
2   158  67.0733 312.8686 0604224  66.1576 300.1557 12.65253904742129
0 THOR ABLESTAR DEB
1   159U 61015AV  20280.06926132 -.00000098 +00000-0 -67810-4 0  9994
2   159 065.5234 149.8169 0378702 231.9449 124.6841 13.02080926809946
0 TIROS 3
1   162U 61017A   20280.19692886 -.00000143 +00000-0 +57806-5 0  9995
2   162 047.8990 097.1864 0044974 196.2976 163.6472 14.44063909091066
0 MIDAS 3
1   163U 61018A   20280.40505440 -.00000021  00000-0 -77042-2 0  9997
2   163  91.1848 114.6973 0101536 278.9286  80.0104  8.91835734928844
0 DELTA 1 DEB (YO)
1   167U 61017D   20279.77358009 -.00000004 +00000-0 +62337-4 0  9998
2   167 047.8460 187.4570 0092312 237.6171 121.5754 14.22770231068335
0 THOR ABLESTAR DEB
1   172U 61015AY  20280.23553658 +.00000149 +00000-0 +28683-3 0  9996
2   172 067.0674 241.9523 0129396 102.6806 258.8759 13.57509717922643
0 THOR ABLESTAR DEB
1   177U 61015BB  20279.96884309 -.00000330  00000-0 -12387-3 0  9997
2   177  66.6607 112.9849 0111203 106.2617 255.0739 14.13492948 47639
0 THOR ABLESTAR DEB
1   178U 61015BC  20279.81268223 -.00000054  00000-0  17132-4 0  9999
2   178  66.8671  42.3070 0075572  35.3718 325.2341 13.92372036  8005
0 MIDAS 3 DEB
1   188U 61018C   20280.04884626 -.00000003  00000-0 -16716-2 0  9991
2   188  91.1791 117.3809 0101512 151.0610 209.5942  8.93798989932667
0 MIDAS 4
1   192U 61028A   20280.12788212 -.00000005 +00000-0 -68697-3 0  9998
2   192 095.8430 146.1888 0138182 203.4475 156.0033 08.67761980867738
0 MIDAS 4 DEB
1   194U 61028C   20280.29406094 -.00000655  00000-0 -27055+0 0  9993
2   194  95.8275 168.1721 0380681  73.2538 290.9725  8.70053516872660
0 MIDAS 4 DEB
1   195U 61028D   20280.04087852 -.00000021  00000-0 -78916-2 0  9996
2   195  95.8523 128.8167 0143354 288.1973  70.3320  8.65617518863391
0 MIDAS 3 DEB
1   196U 61018D   20280.44463360 -.00000002  00000-0 -12998-2 0  9999
2   196  91.1923 112.9346 0102314  53.3932 307.6299  8.89673609924091
0 TRANSIT 4B
1   202U 61031A   20280.43849556  .00000044  00000-0  24542-4 0  9990
2   202  32.4399 336.8502 0101397 260.5368  98.3779 13.63540294937025
0 THOR ABLESTAR R/B
1   204U 61031C   20280.11208408 +.00000022 +00000-0 -35793-6 0  9991
2   204 032.4434 056.8408 0099088 321.5841 037.7758 13.64878019938652
